NORAD_CAT_ID,OBJECT_NAME,OBJECT_TYPE,EPOCH,MEAN_MOTION,ECCENTRICITY,INCLINATION,RA_OF_ASC_NODE,ARG_OF_PERICENTER,MEAN_ANOMALY,BSTAR,MEAN_MOTION_DOT,MEAN_MOTION_DDOT,TLE_LINE0,TLE_LINE1,TLE_LINE2,SEMIMAJOR_AXIS,PERIOD,APOGEE,PERIGEE,DECAYED
52309.0,STARLINK-3756,PAYLOAD,2024-04-06 18:09:37,15.08845478,0.0002438,53.2191,0.2203,77.9489,282.1776,9.6429e-05,1.247e-05,0.0,0 STARLINK-3756,1 52309U 22041BA  24097.75668573  .00001247  00000-0  96429-4 0  9995,2 52309  53.2191   0.2203 0002438  77.9489 282.1776 15.08845478109890,6917.864,95.437,541.415,538.042,0.0
52309.0,STARLINK-3756,PAYLOAD,2024-04-06 22:55:48,15.08828403,0.0001476,53.2191,359.3284,78.2843,281.8315,-4.6339e-05,-1.025e-05,0.0,0 STARLINK-3756,1 52309U 22041BA  24097.95541959 -.00001025  00000-0 -46339-4 0  9996,2 52309  53.2191 359.3284 0001476  78.2843 281.8315 15.08828403109924,6917.916,95.438,540.802,538.76,0.0
52309.0,STARLINK-3756,PAYLOAD,2024-04-07 10:03:29,15.08839235,0.0001499,53.2202,357.2478,87.1376,272.9787,5.4697e-05,5.83e-06,0.0,0 STARLINK-3756,1 52309U 22041BA  24098.41909172  .00000583  00000-0  54697-4 0  9995,2 52309  53.2202 357.2478 0001499  87.1376 272.9787 15.08839235109990,6917.883,95.438,540.785,538.711,0.0
52309.0,STARLINK-3756,PAYLOAD,2024-04-07 21:11:11,15.08833189,0.0001867,53.2219,355.1678,115.7445,244.3741,3.8611e-05,3.26e-06,0.0,0 STARLINK-3756,1 52309U 22041BA  24098.88277679  .00000326  00000-0  38611-4 0  9999,2 52309  53.2219 355.1678 0001867 115.7445 244.3741 15.08833189110066,6917.901,95.438,541.058,538.475,0.0
52309.0,STARLINK-3756,PAYLOAD,2024-04-07 22:46:35,15.08835199,0.0001425,53.2195,354.8706,95.7434,264.3721,-6.3444e-06,-3.89e-06,0.0,0 STARLINK-3756,1 52309U 22041BA  24098.94901763 -.00000389  00000-0 -63444-5 0  9998,2 52309  53.2195 354.8706 0001425  95.7434 264.3721 15.08835199110076,6917.895,95.438,540.746,538.774,0.0
52309.0,STARLINK-3756,PAYLOAD,2024-04-08 09:54:16,15.08849463,0.0001372,53.2191,352.7875,83.0647,277.0501,9.5483e-05,1.232e-05,0.0,0 STARLINK-3756,1 52309U 22041BA  24099.41268613  .00001232  00000-0  95483-4 0  9994,2 52309  53.2191 352.7875 0001372  83.0647 277.0501 15.08849463110147,6917.851,95.437,540.666,538.767,0.0
52309.0,STARLINK-3756,PAYLOAD,2024-04-09 00:12:45,15.08834234,0.0001254,53.2174,350.1101,80.9284,279.185,9.1761e-05,1.173e-05,0.0,0 STARLINK-3756,1 52309U 22041BA  24100.00885678  .00001173  00000-0  91761-4 0  9997,2 52309  53.2174 350.1101 0001254  80.9284 279.1850 15.08834234110234,6917.898,95.438,540.631,538.896,0.0
52309.0,STARLINK-3756,PAYLOAD,2024-04-09 01:48:08,15.08836369,0.000144,53.2173,349.8124,79.6938,280.4217,0.00010344,1.359e-05,0.0,0 STARLINK-3756,1 52309U 22041BA  24100.07509553  .00001359  00000-0  10344-3 0  9992,2 52309  53.2173 349.8124 0001440  79.6938 280.4217 15.08836369110245,6917.891,95.438,540.753,538.76,0.0
52309.0,STARLINK-3756,PAYLOAD,2024-04-09 09:45:03,15.08846677,0.0001511,53.2192,348.3275,90.4811,269.6355,0.00010571,1.395e-05,0.0,0 STARLINK-3756,1 52309U 22041BA  24100.40628838  .00001395  00000-0  10571-3 0  9999,2 52309  53.2192 348.3275 0001511  90.4811 269.6355 15.08846677110297,6917.86,95.437,540.77,538.68,0.0
52309.0,STARLINK-3756,PAYLOAD,2024-04-09 22:28:09,15.08835148,0.0001498,53.2191,345.9472,90.0991,270.0172,5.9667e-05,6.62e-06,0.0,0 STARLINK-3756,1 52309U 22041BA  24100.93621706  .00000662  00000-0  59667-4 0  9990,2 52309  53.2191 345.9472 0001498  90.0991 270.0172 15.08835148110370,6917.895,95.438,540.797,538.724,0.0
52309.0,STARLINK-3756,PAYLOAD,2024-04-10 09:35:50,15.08851745,0.0001294,53.2178,343.8644,92.3895,267.7245,2.8369e-05,1.64e-06,0.0,0 STARLINK-3756,1 52309U 22041BA  24101.39988587  .00000164  00000-0  28369-4 0  9996,2 52309  53.2178 343.8644 0001294  92.3895 267.7245 15.08851745110448,6917.844,95.437,540.605,538.814,0.0
52309.0,STARLINK-3756,PAYLOAD,2024-04-10 20:43:32,15.08839736,0.0001911,53.2206,341.7821,91.1714,268.9497,5.0842e-05,5.21e-06,0.0,0 STARLINK-3756,1 52309U 22041BA  24101.86357457  .00000521  00000-0  50842-4 0  9992,2 52309  53.2206 341.7821 0001911  91.1714 268.9497 15.08839736110513,6917.881,95.438,541.068,538.424,0.0
52309.0,STARLINK-3756,PAYLOAD,2024-04-10 22:18:56,15.08832887,0.0001187,53.2183,341.4876,88.3965,271.7163,2.192e-06,-2.53e-06,0.0,0 STARLINK-3756,1 52309U 22041BA  24101.92981870 -.00000253  00000-0  21920-5 0  9990,2 52309  53.2183 341.4876 0001187  88.3965 271.7163 15.08832887110528,6917.902,95.438,540.588,538.946,0.0
52309.0,STARLINK-3756,PAYLOAD,2024-04-11 20:34:19,15.08837606,0.0001305,53.2184,337.3231,94.8736,265.2405,6.743e-05,7.85e-06,0.0,0 STARLINK-3756,1 52309U 22041BA  24102.85717441  .00000785  00000-0  67430-4 0  9998,2 52309  53.2184 337.3231 0001305  94.8736 265.2405 15.08837606110664,6917.888,95.438,540.655,538.85,0.0
52309.0,STARLINK-3756,PAYLOAD,2024-04-11 22:09:43,15.08837334,0.0001339,53.218,337.0273,88.8185,271.2961,5.7381e-05,6.25e-06,0.0,0 STARLINK-3756,1 52309U 22041BA  24102.92341548  .00000625  00000-0  57381-4 0  9994,2 52309  53.2180 337.0273 0001339  88.8185 271.2961 15.08837334110674,6917.889,95.438,540.68,538.827,0.0
52309.0,STARLINK-3756,PAYLOAD,2024-04-12 22:00:30,15.08840149,0.0001262,53.2176,332.5677,83.4561,276.6575,7.5241e-05,9.1e-06,0.0,0 STARLINK-3756,1 52309U 22041BA  24103.91701396  .00000910  00000-0  75241-4 0  9997,2 52309  53.2176 332.5677 0001262  83.4561 276.6575 15.08840149110826,6917.88,95.438,540.618,538.872,0.0
52309.0,STARLINK-3756,PAYLOAD,2024-04-13 01:11:16,15.08841587,0.0001254,53.2175,331.9721,84.4644,275.6491,8.4345e-05,1.055e-05,0.0,0 STARLINK-3756,1 52309U 22041BA  24104.04949263  .00001055  00000-0  84345-4 0  9995,2 52309  53.2175 331.9721 0001254  84.4644 275.6491 15.08841587110847,6917.876,95.437,540.608,538.873,0.0
52309.0,STARLINK-3756,PAYLOAD,2024-04-13 20:15:54,15.08837706,0.0001294,53.2183,328.4007,89.0685,271.0455,4.1515e-05,3.73e-06,0.0,0 STARLINK-3756,1 52309U 22041BA  24104.84437759  .00000373  00000-0  41515-4 0  9999,2 52309  53.2183 328.4007 0001294  89.0685 271.0455 15.08837706110965,6917.887,95.438,540.648,538.857,0.0
52309.0,STARLINK-3756,PAYLOAD,2024-04-13 21:51:17,15.08837386,0.0001274,53.2183,328.1036,87.8025,272.3113,3.4695e-05,2.64e-06,0.0,0 STARLINK-3756,1 52309U 22041BA  24104.91061805  .00000264  00000-0  34695-4 0  9992,2 52309  53.2183 328.1036 0001274  87.8025 272.3113 15.08837386110976,6917.888,95.438,540.635,538.872,0.0
52309.0,STARLINK-3756,PAYLOAD,2024-04-14 20:06:41,15.08836982,0.0001273,53.2181,323.94,93.3229,266.7909,5.629e-05,6.08e-06,0.0,0 STARLINK-3756,1 52309U 22041BA  24105.83797985  .00000608  00000-0  56290-4 0  9996,2 52309  53.2181 323.9400 0001273  93.3229 266.7909 15.08836982111117,6917.89,95.438,540.635,538.874,0.0
52309.0,STARLINK-3756,PAYLOAD,2024-04-15 21:32:51,15.08840948,0.0001247,53.2178,319.1834,83.3656,276.7478,0.00010333,1.357e-05,0.0,0 STARLINK-3756,1 52309U 22041BA  24106.89781847  .00001357  00000-0  10333-3 0  9992,2 52309  53.2178 319.1834 0001247  83.3656 276.7478 15.08840948111271,6917.877,95.437,540.605,538.88,0.0
52309.0,STARLINK-3756,PAYLOAD,2024-04-15 23:08:14,15.08841546,0.0001254,53.2179,318.886,86.9078,273.2058,0.00010872,1.443e-05,0.0,0 STARLINK-3756,1 52309U 22041BA  24106.96405792  .00001443  00000-0  10872-3 0  9996,2 52309  53.2179 318.8860 0001254  86.9078 273.2058 15.08841546111284,6917.876,95.437,540.608,538.873,0.0
52309.0,STARLINK-3756,PAYLOAD,2024-04-16 07:05:09,15.08850345,0.0001345,53.2183,317.4026,89.4782,270.6364,0.00019003,2.739e-05,0.0,0 STARLINK-3756,1 52309U 22041BA  24107.29525109  .00002739  00000-0  19003-3 0  9992,2 52309  53.2183 317.4026 0001345  89.4782 270.6364 15.08850345111333,6917.849,95.437,540.644,538.783,0.0
52309.0,STARLINK-3756,PAYLOAD,2024-04-16 19:48:15,15.08843312,0.0001349,53.2176,315.022,83.7224,276.3922,1.3291e-05,-7.6e-07,0.0,0 STARLINK-3756,1 52309U 22041BA  24107.82517574 -.00000076  00000-0  13291-4 0  9995,2 52309  53.2176 315.0220 0001349  83.7224 276.3922 15.08843312111415,6917.87,95.437,540.668,538.802,0.0
52309.0,STARLINK-3756,PAYLOAD,2024-04-16 21:23:37,15.08855783,0.0001029,53.2164,314.7234,101.0912,259.0196,0.00018164,2.605e-05,0.0,0 STARLINK-3756,1 52309U 22041BA  24107.89140774  .00002605  00000-0  18164-3 0  9998,2 52309  53.2164 314.7234 0001029 101.0912 259.0196 15.08855783111423,6917.832,95.437,540.409,538.985,0.0
52309.0,STARLINK-3756,PAYLOAD,2024-04-16 22:59:00,15.08855719,0.0001064,53.2165,314.4258,94.4032,265.7082,0.00018339,2.633e-05,0.0,0 STARLINK-3756,1 52309U 22041BA  24107.95764778  .00002633  00000-0  18339-3 0  9996,2 52309  53.2165 314.4258 0001064  94.4032 265.7082 15.08855719111432,6917.832,95.437,540.433,538.961,0.0
52309.0,STARLINK-3756,PAYLOAD,2024-04-17 21:14:24,15.08854511,0.0001007,53.216,310.2624,109.5394,250.5707,9.2073e-05,1.178e-05,0.0,0 STARLINK-3756,1 52309U 22041BA  24108.88500288  .00001178  00000-0  92073-4 0  9994,2 52309  53.2160 310.2624 0001007 109.5394 250.5707 15.08854511111574,6917.836,95.437,540.398,539.004,0.0
52309.0,STARLINK-3756,PAYLOAD,2024-04-17 22:49:47,15.08851951,0.0001017,53.2161,309.9661,104.4697,255.6408,5.9429e-05,6.58e-06,0.0,0 STARLINK-3756,1 52309U 22041BA  24108.95124406  .00000658  00000-0  59429-4 0  9996,2 52309  53.2161 309.9661 0001017 104.4697 255.6408 15.08851951111582,6917.844,95.437,540.412,539.005,0.0
52309.0,STARLINK-3756,PAYLOAD,2024-04-18 19:29:49,15.08836855,0.0001149,53.2174,306.0987,105.0312,255.0808,-9.8379e-05,-1.853e-05,0.0,0 STARLINK-3756,1 52309U 22041BA  24109.81238099 -.00001853  00000-0 -98379-4 0  9993,2 52309  53.2174 306.0987 0001149 105.0312 255.0808 15.08836855111711,6917.89,95.438,540.55,538.96,0.0
52309.0,STARLINK-3756,PAYLOAD,2024-04-18 22:40:36,15.08835329,0.0001262,53.2185,305.5011,101.6767,258.4366,-0.00011731,-2.154e-05,0.0,0 STARLINK-3756,1 52309U 22041BA  24109.94486181 -.00002154  00000-0 -11731-3 0  9995,2 52309  53.2185 305.5011 0001262 101.6767 258.4366 15.08835329111730,6917.895,95.438,540.633,538.887,0.0
